{"type": "FeatureCollection", "features": [ {"type": "Feature", "properties": {"norad_id": 41836, "name": "HIMAWARI-9", "group": "weather", "lat": -0.018900153287526224, "lon": -84.93444094543622, "alt_km": 35779.3941065299, "timestamp": "2025-12-07T03:52:32.112384+00:00", "meta": {"OBJECT_NAME": "HIMAWARI-9", "OBJECT_ID": "2016-064A", "EPOCH": "2025-12-06T10:54:42.902208", "MEAN_MOTION": 1.00270656, "ECCENTRICITY": 0.00017594, "INCLINATION": 0.0146, "RA_OF_ASC_NODE": 60.6584, "ARG_OF_PERICENTER": 232.1919, "MEAN_ANOMALY": 87.0818, "EPHEMERIS_TYPE": 0, "CLASSIFICATION_TYPE": "U", "NORAD_CAT_ID": 41836, "ELEMENT_SET_NO": 999, "REV_AT_EPOCH": 3327, "BSTAR": 0, "MEAN_MOTION_DOT": -2.68e-06, "MEAN_MOTION_DDOT": 0}, "tle": {"line1": "1 41836U 16064A   25340.45466322 -.00000268  00000+0  00000+0 0  9990", "line2": "2 41836   0.0146  60.6584 0001759 232.1919  87.0818  1.00270656 33277"}}, "geometry": {"type": "Point", "coordinates": [-84.93444094543622, -0.018900153287526224]}}, {"type": "Feature", "properties": {"norad_id": 41866, "name": "GOES 16", "group": "weather", "lat": -0.035577880049135244, "lon": 29.675681694279394, "alt_km": 35795.911249318866, "timestamp": "2025-12-07T03:52:32.112396+00:00", "meta": {"OBJECT_NAME": "GOES 16", "OBJECT_ID": "2016-071A", "EPOCH": "2025-12-06T10:53:33.859968", "MEAN_MOTION": 1.00271363, "ECCENTRICITY": 0.00035328, "INCLINATION": 0.0632, "RA_OF_ASC_NODE": 107.6248, "ARG_OF_PERICENTER": 151.6358, "MEAN_ANOMALY": 234.9539, "EPHEMERIS_TYPE": 0, "CLASSIFICATION_TYPE": "U", "NORAD_CAT_ID": 41866, "ELEMENT_SET_NO": 999, "REV_AT_EPOCH": 3317, "BSTAR": 0, "MEAN_MOTION_DOT": -8.4e-07, "MEAN_MOTION_DDOT": 0}, "tle": {"line1": "1 41866U 16071A   25340.45386412 -.00000084  00000+0  00000+0 0  9998", "line2": "2 41866   0.0632 107.6248 0003532 151.6358 234.9539  1.00271363 33170"}}, "geometry": {"type": "Point", "coordinates": [29.675681694279394, -0.035577880049135244]}}, {"type": "Feature", "properties": {"norad_id": 41882, "name": "FENGYUN 4A", "group": "weather", "lat": 0.11196120708804733, "lon": -101.84118666820017, "alt_km": 35766.859550889705, "timestamp": "2025-12-07T03:52:32.112409+00:00", "meta": {"OBJECT_NAME": "FENGYUN 4A", "OBJECT_ID": "2016-077A", "EPOCH": "2025-12-06T12:32:33.530784", "MEAN_MOTION": 1.00276587, "ECCENTRICITY": 0.00050266, "INCLINATION": 1.8328, "RA_OF_ASC_NODE": 82.4533, "ARG_OF_PERICENTER": 143.1524, "MEAN_ANOMALY": 161.8915, "EPHEMERIS_TYPE": 0, "CLASSIFICATION_TYPE": "U", "NORAD_CAT_ID": 41882, "ELEMENT_SET_NO": 999, "REV_AT_EPOCH": 3299, "BSTAR": 0, "MEAN_MOTION_DOT": -3.5e-06, "MEAN_MOTION_DDOT": 0}, "tle": {"line1": "1 41882U 16077A   25340.52261031 -.00000350  00000+0  00000+0 0  9995", "line2": "2 41882   1.8328  82.4533 0005026 143.1524 161.8915  1.00276587 32995"}}, "geometry": {"type": "Point", "coordinates": [-101.84118666820017, 0.11196120708804733]}}, {"type": "Feature", "properties": {"norad_id": 41884, "name": "CYGFM05", "group": "weather", "lat": -7.96914788698354, "lon": -84.88038679213007, "alt_km": 421.5326051721813, "timestamp": "2025-12-07T03:52:32.112421+00:00", "meta": {"OBJECT_NAME": "CYGFM05", "OBJECT_ID": "2016-078A", "EPOCH": "2025-12-06T14:39:17.464320", "MEAN_MOTION": 15.4730439, "ECCENTRICITY": 0.00094399, "INCLINATION": 34.9598, "RA_OF_ASC_NODE": 87.1575, "ARG_OF_PERICENTER": 125.1112, "MEAN_ANOMALY": 235.0496, "EPHEMERIS_TYPE": 0, "CLASSIFICATION_TYPE": "U", "NORAD_CAT_ID": 41884, "ELEMENT_SET_NO": 999, "REV_AT_EPOCH": 49881, "BSTAR": 0.00056967886, "MEAN_MOTION_DOT": 0.00030072, "MEAN_MOTION_DDOT": 0}, "tle": {"line1": "1 41884U 16078A   25340.61061880  .00030072  00000+0  56968-3 0  9999", "line2": "2 41884  34.9598  87.1575 0009439 125.1112 235.0496 15.47304390498811"}}, "geometry": {"type": "Point", "coordinates": [-84.88038679213007, -7.96914788698354]}}, {"type": "Feature", "properties": {"norad_id": 41885, "name": "CYGFM04", "group": "weather", "lat": 10.497165305010125, "lon": 73.89128356930107, "alt_km": 418.6743514029431, "timestamp": "2025-12-07T03:52:32.112433+00:00", "meta": {"OBJECT_NAME": "CYGFM04", "OBJECT_ID": "2016-078B", "EPOCH": "2025-12-06T13:53:02.024160", "MEAN_MOTION": 15.49983153, "ECCENTRICITY": 0.00086917, "INCLINATION": 34.9353, "RA_OF_ASC_NODE": 62.3207, "ARG_OF_PERICENTER": 154.353, "MEAN_ANOMALY": 205.7624, "EPHEMERIS_TYPE": 0, "CLASSIFICATION_TYPE": "U", "NORAD_CAT_ID": 41885, "ELEMENT_SET_NO": 999, "REV_AT_EPOCH": 49898, "BSTAR": 0.00057452634, "MEAN_MOTION_DOT": 0.00033335, "MEAN_MOTION_DDOT": 0}, "tle": {"line1": "1 41885U 16078B   25340.57849565  .00033335  00000+0  57453-3 0  9994", "line2": "2 41885  34.9353  62.3207 0008691 154.3530 205.7624 15.49983153498982"}}, "geometry": {"type": "Point", "coordinates": [73.89128356930107, 10.497165305010125]}}, {"type": "Feature", "properties": {"norad_id": 41886, "name": "CYGFM02", "group": "weather", "lat": 2.3181682642343526, "lon": 60.21879427226366, "alt_km": 417.6819835686647, "timestamp": "2025-12-07T03:52:32.112445+00:00", "meta": {"OBJECT_NAME": "CYGFM02", "OBJECT_ID": "2016-078C", "EPOCH": "2025-12-06T13:57:30.461184", "MEAN_MOTION": 15.51337898, "ECCENTRICITY": 0.00104246, "INCLINATION": 34.9442, "RA_OF_ASC_NODE": 60.705, "ARG_OF_PERICENTER": 153.6447, "MEAN_ANOMALY": 206.4808, "EPHEMERIS_TYPE": 0, "CLASSIFICATION_TYPE": "U", "NORAD_CAT_ID": 41886, "ELEMENT_SET_NO": 999, "REV_AT_EPOCH": 49911, "BSTAR": 0.00058158443, "MEAN_MOTION_DOT": 0.00035452, "MEAN_MOTION_DDOT": 0}, "tle": {"line1": "1 41886U 16078C   25340.58160256  .00035452  00000+0  58158-3 0  9994", "line2": "2 41886  34.9442  60.7050 0010424 153.6447 206.4808 15.51337898499116"}}, "geometry": {"type": "Point", "coordinates": [60.21879427226366, 2.3181682642343526]}}, {"type": "Feature", "properties": {"norad_id": 41887, "name": "CYGFM01", "group": "weather", "lat": -24.579040861838806, "lon": -53.12421922380388, "alt_km": 425.89244700129893, "timestamp": "2025-12-07T03:52:32.112455+00:00", "meta": {"OBJECT_NAME": "CYGFM01", "OBJECT_ID": "2016-078D", "EPOCH": "2025-12-06T14:31:10.443072", "MEAN_MOTION": 15.47873891, "ECCENTRICITY": 0.00090782, "INCLINATION": 34.9427, "RA_OF_ASC_NODE": 89.5869, "ARG_OF_PERICENTER": 116.1363, "MEAN_ANOMALY": 244.0293, "EPHEMERIS_TYPE": 0, "CLASSIFICATION_TYPE": "U", "NORAD_CAT_ID": 41887, "ELEMENT_SET_NO": 999, "REV_AT_EPOCH": 49875, "BSTAR": 0.00057301935, "MEAN_MOTION_DOT": 0.00030857, "MEAN_MOTION_DDOT": 0}, "tle": {"line1": "1 41887U 16078D   25340.60498198  .00030857  00000+0  57302-3 0  9991", "line2": "2 41887  34.9427  89.5869 0009078 116.1363 244.0293 15.47873891498759"}}, "geometry": {"type": "Point", "coordinates": [-53.12421922380388, -24.579040861838806]}}, {"type": "Feature", "properties": {"norad_id": 41888, "name": "CYGFM08", "group": "weather", "lat": -32.745725497901084, "lon": -43.92633731190358, "alt_km": 423.0798109427451, "timestamp": "2025-12-07T03:52:32.112466+00:00", "meta": {"OBJECT_NAME": "CYGFM08", "OBJECT_ID": "2016-078E", "EPOCH": "2025-12-06T14:25:31.629792", "MEAN_MOTION": 15.49060327, "ECCENTRICITY": 0.00108244, "INCLINATION": 34.9461, "RA_OF_ASC_NODE": 72.6755, "ARG_OF_PERICENTER": 141.8988, "MEAN_ANOMALY": 218.2501, "EPHEMERIS_TYPE": 0, "CLASSIFICATION_TYPE": "U", "NORAD_CAT_ID": 41888, "ELEMENT_SET_NO": 999, "REV_AT_EPOCH": 49898, "BSTAR": 0.00057361432, "MEAN_MOTION_DOT": 0.00032233, "MEAN_MOTION_DDOT": 0}, "tle": {"line1": "1 41888U 16078E   25340.60106053  .00032233  00000+0  57361-3 0  9993", "line2": "2 41888  34.9461  72.6755 0010824 141.8988 218.2501 15.49060327498988"}}, "geometry": {"type": "Point", "coordinates": [-43.92633731190358, -32.745725497901084]}}, {"type": "Feature", "properties": {"norad_id": 41890, "name": "CYGFM07", "group": "weather", "lat": -24.729313951370916, "lon": -80.72024958467205, "alt_km": 416.0808715396779, "timestamp": "2025-12-07T03:52:32.112478+00:00", "meta": {"OBJECT_NAME": "CYGFM07", "OBJECT_ID": "2016-078G", "EPOCH": "2025-12-06T14:31:58.960128", "MEAN_MOTION": 15.49635518, "ECCENTRICITY": 0.00092233, "INCLINATION": 34.9481, "RA_OF_ASC_NODE": 61.6609, "ARG_OF_PERICENTER": 160.7733, "MEAN_ANOMALY": 199.3339, "EPHEMERIS_TYPE": 0, "CLASSIFICATION_TYPE": "U", "NORAD_CAT_ID": 41890, "ELEMENT_SET_NO": 999, "REV_AT_EPOCH": 49900, "BSTAR": 0.00058150134, "MEAN_MOTION_DOT": 0.00033332, "MEAN_MOTION_DDOT": 0}, "tle": {"line1": "1 41890U 16078G   25340.60554352  .00033332  00000+0  58150-3 0  9993", "line2": "2 41890  34.9481  61.6609 0009223 160.7733 199.3339 15.49635518499000"}}, "geometry": {"type": "Point", "coordinates": [-80.72024958467205, -24.729313951370916]}}, {"type": "Feature", "properties": {"norad_id": 41891, "name": "CYGFM03", "group": "weather", "lat": 30.783381787768548, "lon": 118.49324368119412, "alt_km": 412.0986389346981, "timestamp": "2025-12-07T03:52:32.112489+00:00", "meta": {"OBJECT_NAME": "CYGFM03", "OBJECT_ID": "2016-078H", "EPOCH": "2025-12-06T13:41:14.602560", "MEAN_MOTION": 15.49535042, "ECCENTRICITY": 0.00084934, "INCLINATION": 34.9434, "RA_OF_ASC_NODE": 63.8068, "ARG_OF_PERICENTER": 146.9636, "MEAN_ANOMALY": 213.1617, "EPHEMERIS_TYPE": 0, "CLASSIFICATION_TYPE": "U", "NORAD_CAT_ID": 41891, "ELEMENT_SET_NO": 999, "REV_AT_EPOCH": 49897, "BSTAR": 0.0005693164, "MEAN_MOTION_DOT": 0.00032505, "MEAN_MOTION_DDOT": 0}, "tle": {"line1": "1 41891U 16078H   25340.57030790  .00032505  00000+0  56932-3 0  9992", "line2": "2 41891  34.9434  63.8068 0008493 146.9636 213.1617 15.49535042498978"}}, "geometry": {"type": "Point", "coordinates": [118.49324368119412, 30.783381787768548]}}]}